{
    "links": {
        "self": "http://www.neowsapp.com/rest/v1/neo/54016424?api_key=iIulBulltgU6a56xZRHN4H3l9WmuAYTsLGpBGhQ2"
    },
    "id": "54016424",
    "neo_reference_id": "54016424",
    "name": "(2020 FV6)",
    "designation": "2020 FV6",
    "nasa_jpl_url": "http://ssd.jpl.nasa.gov/sbdb.cgi?sstr=54016424",
    "absolute_magnitude_h": 22.974,
    "estimated_diameter": {
        "kilometers": {
            "estimated_diameter_min": 0.0675701646,
            "estimated_diameter_max": 0.1510914812
        },
        "meters": {
            "estimated_diameter_min": 67.5701645603,
            "estimated_diameter_max": 151.0914812077
        },
        "miles": {
            "estimated_diameter_min": 0.0419861407,
            "estimated_diameter_max": 0.0938838648
        },
        "feet": {
            "estimated_diameter_min": 221.6868986961,
            "estimated_diameter_max": 495.7069752056
        }
    },
    "is_potentially_hazardous_asteroid": false,
    "close_approach_data": [
        {
            "close_approach_date": "2020-04-19",
            "close_approach_date_full": "2020-Apr-19 13:29",
            "epoch_date_close_approach": 1587302940000,
            "relative_velocity": {
                "kilometers_per_second": "19.7881545444",
                "kilometers_per_hour": "71237.3563598994",
                "miles_per_hour": "44264.1229004053"
            },
            "miss_distance": {
                "astronomical": "0.0276418106",
                "lunar": "10.7526643234",
                "kilometers": "4135155.988703422",
                "miles": "2569466.7836223436"
            },
            "orbiting_body": "Earth"
        },
        {
            "close_approach_date": "2050-07-22",
            "close_approach_date_full": "2050-Jul-22 07:07",
            "epoch_date_close_approach": 2542086420000,
            "relative_velocity": {
                "kilometers_per_second": "16.188072433",
                "kilometers_per_hour": "58277.0607587935",
                "miles_per_hour": "36211.0992253737"
            },
            "miss_distance": {
                "astronomical": "0.1037463905",
                "lunar": "40.3573459045",
                "kilometers": "15520239.038988235",
                "miles": "9643829.348518243"
            },
            "orbiting_body": "Venus"
        },
        {
            "close_approach_date": "2050-09-17",
            "close_approach_date_full": "2050-Sep-17 23:58",
            "epoch_date_close_approach": 2547071880000,
            "relative_velocity": {
                "kilometers_per_second": "20.1577588063",
                "kilometers_per_hour": "72567.9317027358",
                "miles_per_hour": "45090.8906738471"
            },
            "miss_distance": {
                "astronomical": "0.0536293759",
                "lunar": "20.8618272251",
                "kilometers": "8022840.404069333",
                "miles": "4985161.8620614754"
            },
            "orbiting_body": "Earth"
        },
        {
            "close_approach_date": "2156-02-23",
            "close_approach_date_full": "2156-Feb-23 07:12",
            "epoch_date_close_approach": 5874189120000,
            "relative_velocity": {
                "kilometers_per_second": "11.3536125893",
                "kilometers_per_hour": "40873.0053213691",
                "miles_per_hour": "25396.8960009363"
            },
            "miss_distance": {
                "astronomical": "1.9902369551",
                "lunar": "774.2021755339",
                "kilometers": "297735209.278245637",
                "miles": "185004080.2923063106"
            },
            "orbiting_body": "Juptr"
        },
        {
            "close_approach_date": "2168-02-24",
            "close_approach_date_full": "2168-Feb-24 12:14",
            "epoch_date_close_approach": 6252984840000,
            "relative_velocity": {
                "kilometers_per_second": "5.9184847537",
                "kilometers_per_hour": "21306.5451131545",
                "miles_per_hour": "13239.0585454487"
            },
            "miss_distance": {
                "astronomical": "0.6672306882",
                "lunar": "259.5527377098",
                "kilometers": "99816289.753354134",
                "miles": "62022966.4095656892"
            },
            "orbiting_body": "Juptr"
        }
    ],
    "orbital_data": {
        "orbit_id": "13",
        "orbit_determination_date": "2020-04-18 07:43:33",
        "first_observation_date": "2020-03-29",
        "last_observation_date": "2020-04-17",
        "data_arc_in_days": 19,
        "observations_used": 95,
        "orbit_uncertainty": "7",
        "minimum_orbit_intersection": ".00255798",
        "jupiter_tisserand_invariant": "2.948",
        "epoch_osculation": "2459000.5",
        "eccentricity": ".7245707207288761",
        "semi_major_axis": "2.645331424730367",
        "inclination": "3.176439667434859",
        "ascending_node_longitude": "29.0096984344495",
        "orbital_period": "1571.515118731159",
        "perihelion_distance": ".7286017277467403",
        "perihelion_argument": "252.4414943532153",
        "aphelion_distance": "4.562061121713993",
        "perihelion_time": "2459001.698493908283",
        "mean_anomaly": "359.725451061947",
        "mean_motion": ".2290782924765395",
        "equinox": "J2000",
        "orbit_class": {
            "orbit_class_type": "APO",
            "orbit_class_description": "Near-Earth asteroid orbits which cross the Earth’s orbit similar to that of 1862 Apollo",
            "orbit_class_range": "a (semi-major axis) > 1.0 AU; q (perihelion) < 1.017 AU"
        }
    },
    "is_sentry_object": false
}